NORAD_CAT_ID,OBJECT_NAME,OBJECT_TYPE,EPOCH,MEAN_MOTION,ECCENTRICITY,INCLINATION,RA_OF_ASC_NODE,ARG_OF_PERICENTER,MEAN_ANOMALY,BSTAR,MEAN_MOTION_DOT,MEAN_MOTION_DDOT,TLE_LINE0,TLE_LINE1,TLE_LINE2,SEMIMAJOR_AXIS,PERIOD,APOGEE,PERIGEE,DECAYED
54085.0,STARLINK-5166,PAYLOAD,2023-11-23 17:54:21,15.08853375,0.0001324,53.216,131.332,97.5117,262.6025,0.00031501,4.731e-05,0.0,0 STARLINK-5166,1 54085U 22136AL  23327.74608776  .00004731  00000-0  31501-3 0  9996,2 54085  53.2160 131.3320 0001324  97.5117 262.6025 15.08853375 60637,6917.84,95.437,540.62,538.789,0.0
54085.0,STARLINK-5166,PAYLOAD,2023-11-24 09:48:13,15.08849769,0.0001416,53.2158,128.364,90.6501,269.4654,0.00018757,2.699e-05,0.0,0 STARLINK-5166,1 54085U 22136AL  23328.40848618  .00002699  00000-0  18757-3 0  9990,2 54085  53.2158 128.3640 0001416  90.6501 269.4654 15.08849769 61207,6917.851,95.437,540.695,538.736,0.0
54085.0,STARLINK-5166,PAYLOAD,2023-11-24 14:34:22,15.0884628,0.0001396,53.216,127.4677,102.4817,257.6331,1.8672e-05,9e-08,0.0,0 STARLINK-5166,1 54085U 22136AL  23328.60720669  .00000009  00000-0  18672-4 0  9997,2 54085  53.2160 127.4677 0001396 102.4817 257.6331 15.08846280 60765,6917.861,95.437,540.692,538.76,0.0
54085.0,STARLINK-5166,PAYLOAD,2023-11-24 17:45:08,15.08847133,0.0001375,53.2157,126.8728,98.4509,261.6639,1.897e-05,1.4e-07,0.0,0 STARLINK-5166,1 54085U 22136AL  23328.73968538  .00000014  00000-0  18970-4 0  9997,2 54085  53.2157 126.8728 0001375  98.4509 261.6639 15.08847133 60786,6917.859,95.437,540.675,538.772,0.0
54085.0,STARLINK-5166,PAYLOAD,2023-11-25 14:25:09,15.08848883,0.0001237,53.2169,123.0059,93.0065,267.1069,1.9711e-05,2.6e-07,0.0,0 STARLINK-5166,1 54085U 22136AL  23329.60080426  .00000026  00000-0  19711-4 0  9992,2 54085  53.2169 123.0059 0001237  93.0065 267.1069 15.08848883 60916,6917.853,95.437,540.574,538.862,0.0
54085.0,STARLINK-5166,PAYLOAD,2023-11-25 20:46:41,15.0885458,0.0001432,53.217,121.8168,104.4272,255.6879,7.008e-05,8.28e-06,0.0,0 STARLINK-5166,1 54085U 22136AL  23329.86575700  .00000828  00000-0  70080-4 0  9990,2 54085  53.2170 121.8168 0001432 104.4272 255.6879 15.08854580 60955,6917.836,95.437,540.691,538.71,0.0
54085.0,STARLINK-5166,PAYLOAD,2023-11-26 09:29:46,15.08843785,0.0001628,53.2171,119.4353,113.001,247.1154,6.536e-05,7.52e-06,0.0,0 STARLINK-5166,1 54085U 22136AL  23330.39568184  .00000752  00000-0  65360-4 0  9999,2 54085  53.2171 119.4353 0001628 113.0010 247.1154 15.08843785 61507,6917.869,95.437,540.86,538.608,0.0
54085.0,STARLINK-5166,PAYLOAD,2023-11-26 14:15:55,15.08847197,0.0001436,53.2169,118.5452,112.9363,247.1781,9.9145e-05,1.291e-05,0.0,0 STARLINK-5166,1 54085U 22136AL  23330.59439726  .00001291  00000-0  99145-4 0  9997,2 54085  53.2169 118.5452 0001436 112.9363 247.1781 15.08847197 61068,6917.858,95.437,540.717,538.73,0.0
54085.0,STARLINK-5166,PAYLOAD,2023-11-26 17:26:42,15.08850297,0.0001334,53.2172,117.9504,102.2612,257.8529,0.00011749,1.583e-05,0.0,0 STARLINK-5166,1 54085U 22136AL  23330.72687502  .00001583  00000-0  11749-3 0  9996,2 54085  53.2172 117.9504 0001334 102.2612 257.8529 15.08850297 61556,6917.849,95.437,540.637,538.791,0.0
54085.0,STARLINK-5166,PAYLOAD,2023-11-27 09:20:34,15.08842513,0.0001681,53.2183,114.9831,89.7586,270.3599,3.5284e-06,-2.32e-06,0.0,0 STARLINK-5166,1 54085U 22136AL  23331.38928447 -.00000232  00000-0  35284-5 0  9998,2 54085  53.2183 114.9831 0001681  89.7586 270.3599 15.08842513 61652,6917.873,95.437,540.901,538.575,0.0
54085.0,STARLINK-5166,PAYLOAD,2023-11-27 14:06:43,15.08837255,0.0001412,53.2173,114.0838,95.0481,265.0673,-6.2606e-06,-3.88e-06,0.0,0 STARLINK-5166,1 54085U 22136AL  23331.58800732 -.00000388  00000-0 -62606-5 0  9997,2 54085  53.2173 114.0838 0001412  95.0481 265.0673 15.08837255 61218,6917.889,95.438,540.731,538.777,0.0
54085.0,STARLINK-5166,PAYLOAD,2023-11-27 17:17:30,15.08836278,0.0001322,53.2173,113.4893,91.667,268.4473,-2.2844e-05,-6.51e-06,0.0,0 STARLINK-5166,1 54085U 22136AL  23331.72048835 -.00000651  00000-0 -22844-4 0  9993,2 54085  53.2173 113.4893 0001322  91.6670 268.4473 15.08836278 61707,6917.892,95.438,540.671,538.842,0.0
54085.0,STARLINK-5166,PAYLOAD,2023-11-28 13:57:30,15.08843063,0.0001371,53.2178,109.626,76.0906,284.0238,1.8549e-05,7e-08,0.0,0 STARLINK-5166,1 54085U 22136AL  23332.58160556  .00000007  00000-0  18549-4 0  9993,2 54085  53.2178 109.6260 0001371  76.0906 284.0238 15.08843063 61365,6917.871,95.437,540.684,538.788,0.0
54085.0,STARLINK-5166,PAYLOAD,2023-11-28 15:32:53,15.08844821,0.0001438,53.2177,109.3287,76.9002,283.2151,4.3923e-05,4.11e-06,0.0,0 STARLINK-5166,1 54085U 22136AL  23332.64784391  .00000411  00000-0  43923-4 0  9992,2 54085  53.2177 109.3287 0001438  76.9002 283.2151 15.08844821 61841,6917.866,95.437,540.725,538.736,0.0
54085.0,STARLINK-5166,PAYLOAD,2023-11-29 13:48:17,15.08837934,0.0001572,53.2177,105.1668,62.9977,297.1175,0.00016423,2.327e-05,0.0,0 STARLINK-5166,1 54085U 22136AL  23333.57520758  .00002327  00000-0  16423-3 0  9992,2 54085  53.2177 105.1668 0001572  62.9977 297.1175 15.08837934 61514,6917.887,95.438,540.839,538.664,0.0
54085.0,STARLINK-5166,PAYLOAD,2023-11-29 15:23:40,15.08839848,0.00016,53.2174,104.8694,62.342,297.7735,0.00018385,2.639e-05,0.0,0 STARLINK-5166,1 54085U 22136AL  23333.64144655  .00002639  00000-0  18385-3 0  9993,2 54085  53.2174 104.8694 0001600  62.3420 297.7735 15.08839848 61991,6917.881,95.438,540.853,538.639,0.0
54085.0,STARLINK-5166,PAYLOAD,2023-11-30 12:03:42,15.08835949,0.0001516,53.2177,101.0018,108.9829,251.1327,6.6917e-06,-1.81e-06,0.0,0 STARLINK-5166,1 54085U 22136AL  23334.50257379 -.00000181  00000-0  66917-5 0  9994,2 54085  53.2177 101.0018 0001516 108.9829 251.1327 15.08835949 62124,6917.893,95.438,540.807,538.709,0.0
54085.0,STARLINK-5166,PAYLOAD,2023-12-01 15:05:14,15.08852752,0.0001313,53.2172,95.9406,88.0091,272.1052,8.9215e-05,1.133e-05,0.0,0 STARLINK-5166,1 54085U 22136AL  23335.62864285  .00001133  00000-0  89215-4 0  9990,2 54085  53.2172  95.9406 0001313  88.0091 272.1052 15.08852752 62292,6917.841,95.437,540.615,538.798,0.0
54085.0,STARLINK-5166,PAYLOAD,2023-12-02 13:20:37,15.08864885,0.0001359,53.2169,91.7826,96.9701,263.1446,0.00042077,6.419e-05,0.0,0 STARLINK-5166,1 54085U 22136AL  23336.55599495  .00006419  00000-0  42077-3 0  9997,2 54085  53.2169  91.7826 0001359  96.9701 263.1446 15.08864885 61964,6917.804,95.436,540.609,538.729,0.0
54085.0,STARLINK-5166,PAYLOAD,2023-12-02 14:56:00,15.08865148,0.0001243,53.2176,91.4833,97.7786,262.3347,0.0003109,4.667e-05,0.0,0 STARLINK-5166,1 54085U 22136AL  23336.62222480  .00004667  00000-0  31090-3 0  9998,2 54085  53.2176  91.4833 0001243  97.7786 262.3347 15.08865148 62449,6917.804,95.436,540.528,538.809,0.0
54085.0,STARLINK-5166,PAYLOAD,2023-12-03 11:36:05,15.08822215,0.0001501,53.2174,87.6153,105.5848,254.531,-0.0001778,-3.115e-05,0.0,0 STARLINK-5166,1 54085U 22136AL  23337.48339153 -.00003115  00000-0 -17780-3 0  9998,2 54085  53.2174  87.6153 0001501 105.5848 254.5310 15.08822215 62578,6917.935,95.439,540.838,538.761,0.0
54085.0,STARLINK-5166,PAYLOAD,2023-12-03 13:11:29,15.08806332,0.0001349,53.2174,87.3181,71.3935,288.7204,-0.00030799,-5.182e-05,0.0,0 STARLINK-5166,1 54085U 22136AL  23337.54964577 -.00005182  00000-0 -30799-3 0  9990,2 54085  53.2174  87.3181 0001349  71.3935 288.7204 15.08806332 62116,6917.983,95.44,540.782,538.915,0.0
54085.0,STARLINK-5166,PAYLOAD,2023-12-03 16:22:15,15.08806534,0.0001344,53.2175,86.7236,76.6144,283.4998,-0.00029724,-5.011e-05,0.0,0 STARLINK-5166,1 54085U 22136AL  23337.68212750 -.00005011  00000-0 -29724-3 0  9991,2 54085  53.2175  86.7236 0001344  76.6144 283.4998 15.08806534 62606,6917.983,95.44,540.777,538.918,0.0
54085.0,STARLINK-5166,PAYLOAD,2023-12-04 11:26:51,15.08840095,0.0001533,53.2187,83.1595,70.497,289.6187,-0.00014885,-2.656e-05,0.0,0 STARLINK-5166,1 54085U 22136AL  23338.47698580 -.00002656  00000-0 -14885-3 0  9992,2 54085  53.2187  83.1595 0001533  70.4970 289.6187 15.08840095 62728,6917.88,95.438,540.806,538.685,0.0
54085.0,STARLINK-5166,PAYLOAD,2023-12-04 13:02:14,15.08842891,0.000202,53.219,82.8626,65.7672,294.3531,-0.00011363,-2.096e-05,0.0,0 STARLINK-5166,1 54085U 22136AL  23338.54322461 -.00002096  00000-0 -11363-3 0  9998,2 54085  53.2190  82.8626 0002020  65.7672 294.3531 15.08842891 62262,6917.872,95.437,541.134,538.339,0.0
54085.0,STARLINK-5166,PAYLOAD,2023-12-04 16:12:59,15.0885699,0.0001391,53.2182,82.266,76.076,284.0387,-1.0431e-05,-4.54e-06,0.0,0 STARLINK-5166,1 54085U 22136AL  23338.67569134 -.00000454  00000-0 -10431-4 0  9994,2 54085  53.2182  82.2660 0001391  76.0760 284.0387 15.08856990 62752,6917.828,95.436,540.656,538.731,0.0
54085.0,STARLINK-5166,PAYLOAD,2023-12-05 11:17:38,15.08833105,0.000199,53.219,78.6963,58.9802,301.1385,0.00050184,7.706e-05,0.0,0 STARLINK-5166,1 54085U 22136AL  23339.47057934  .00007706  00000-0  50184-3 0  9996,2 54085  53.2190  78.6963 0001990  58.9802 301.1385 15.08833105 62872,6917.901,95.438,541.143,538.39,0.0
54085.0,STARLINK-5166,PAYLOAD,2023-12-05 12:53:01,15.08833371,0.0001901,53.2195,78.4004,63.0172,297.1014,0.00052426,8.064e-05,0.0,0 STARLINK-5166,1 54085U 22136AL  23339.53681997  .00008064  00000-0  52426-3 0  9994,2 54085  53.2195  78.4004 0001901  63.0172 297.1014 15.08833371 62418,6917.901,95.438,541.081,538.451,0.0
54085.0,STARLINK-5166,PAYLOAD,2023-12-06 12:43:48,15.08851859,0.0001448,53.2179,73.9408,72.3356,287.7794,1.3941e-06,-2.66e-06,0.0,0 STARLINK-5166,1 54085U 22136AL  23340.53042017 -.00000266  00000-0  13941-5 0  9998,2 54085  53.2179  73.9408 0001448  72.3356 287.7794 15.08851859 62568,6917.844,95.437,540.711,538.707,0.0
54085.0,STARLINK-5166,PAYLOAD,2023-12-07 10:59:12,15.08852876,0.0001466,53.2189,69.7804,74.6965,285.4189,-0.00016811,-2.963e-05,0.0,0 STARLINK-5166,1 54085U 22136AL  23341.45778008 -.00002963  00000-0 -16811-3 0  9990,2 54085  53.2189  69.7804 0001466  74.6965 285.4189 15.08852876 63174,6917.841,95.437,540.72,538.692,0.0
